ORBCOMM FM20            
1 25416U 98046D   25151.36586523  .00000748  00000+0  29623-3 0  9990
2 25416  44.9941 260.9310 0002494 214.3221 145.7465 14.37184021401846
ORBCOMM FM16            
1 25417U 98046E   25151.59001212  .00001090  00000+0  39654-3 0  9999
2 25417  44.9937 251.6584 0006409 218.2246 141.8148 14.38875409401867
ORBCOMM FM15            
1 25418U 98046F   25151.56203954  .00001002  00000+0  37084-3 0  9992
2 25418  44.9969 256.8859 0005961 217.6623 142.3809 14.38521306401852
ORBCOMM FM14            
1 25419U 98046G   25151.58399551  .00001033  00000+0  37831-3 0  9998
2 25419  44.9957 255.0665 0004820 214.8535 145.1999 14.38878040401828
ORBCOMM FM13            
1 25420U 98046H   25151.61427791  .00000853  00000+0  32825-3 0  9999
2 25420  44.9975 262.7385 0006660 200.9937 159.0638 14.37641908400856
ORBCOMM FM21            
1 25475U 98053A   25151.26940367  .00000921  00000+0  35305-3 0  9999
2 25475  45.0098 349.6091 0001757 130.3715 229.7287 14.37320760394818
ORBCOMM FM22            
1 25476U 98053B   25151.24914715  .00001037  00000+0  38371-3 0  9991
2 25476  45.0088 344.6937 0003683 136.5513 223.5626 14.38350051394834
ORBCOMM FM23            
1 25477U 98053C   25151.55025645  .00000914  00000+0  34938-3 0  9999
2 25477  45.0095 350.4254 0002779 130.8929 229.2161 14.37499234395006
